[{"OBJECT_NAME":"OBJECT K","OBJECT_ID":"2024-205K","EPOCH":"2026-03-09T22:22:01.331040","MEAN_MOTION":15.27932792,"ECCENTRICITY":0.00106729,"INCLINATION":97.417,"RA_OF_ASC_NODE":146.2172,"ARG_OF_PERICENTER":37.4736,"MEAN_ANOMALY":322.7246,"EPHEMERIS_TYPE":0,"CLASSIFICATION_TYPE":"U","NORAD_CAT_ID":61903,"ELEMENT_SET_NO":999,"REV_AT_EPOCH":7347,"BSTAR":0.00067315144,"MEAN_MOTION_DOT":0.00018331,"MEAN_MOTION_DDOT":0},{"OBJECT_NAME":"STARLINK-35439","OBJECT_ID":"2025-259K","EPOCH":"2026-03-09T22:47:37.272480","MEAN_MOTION":15.27602329,"ECCENTRICITY":0.00011733,"INCLINATION":43.0027,"RA_OF_ASC_NODE":272.6558,"ARG_OF_PERICENTER":24.4646,"MEAN_ANOMALY":335.6262,"EPHEMERIS_TYPE":0,"CLASSIFICATION_TYPE":"U","NORAD_CAT_ID":66431,"ELEMENT_SET_NO":999,"REV_AT_EPOCH":1953,"BSTAR":0.0011824295,"MEAN_MOTION_DOT":0.00032441,"MEAN_MOTION_DDOT":0}]
